Store,Street Address,Address Line 2,City,State,Zip
2,108 Gateway Shopping Center,,Beaumont,TX,77701
5,7855 Memorial Blvd.,,Port Arthur,TX,77642
6,3129 Hwy 14,,Lake Charles,LA,70601
7,820 H East Admiral Doyle,,New Liberia,LA,70560
9,8888 Airline Hwy,,Baton Rouge,LA,70815
11,3316 Ambassador Caffrey,,Lafayette,LA,70506
12,4326 Dowlen Road,,Beaumont,TX,77706
14,180 Strickland Drive,,Orange,TX,77630
15,2425 Turning Basin,,Houston,TX,77029
16,9700 N Freeway,,Houston,TX,77037
17,8201 S Gessner,,Houston,TX,77036
18,10025 Almeda Genoa Road,,Houston,TX,77075
21,20051 Katy Freeway,,Katy,TX,77450
24,19633 Hwy 59 North,Suite D,Humble,TX,77338
25,7736 FM 1960 West,,Houston,TX,77070
26,13337 I-H 10 East,,Houston,TX,77015
27,4446 North Freeway,,Houston,TX,77022
29,1020 W. Nasa Road,Suite 266,Webster,TX,77598
41,724 East Expressway 83,,McAllen,TX,78501
42,706 S. Dixieland Road,,Harlingen,TX,78552
43,4465 N Expressway 77/88,,Brownsville,TX,78520
46,11650 Bandera Road,,San Antonio,TX,78250
48,12901 N IH 35,Suite 1100,Austin,TX,78753
61,2514 S W Military,,San Antonio,TX,78221
62,4999 NW Loop 410,,San Antonio,TX,78229
64,1339 SW Loop 410,,San Antonio,TX,78227
66,9900 S IH 35,,Austin,TX,78748
68,7730 I-H 35 North,,San Antonio,TX,78218
70,6888 Gulf Freeway,,Houston,TX,77087
71,11051 Northwest Freeway,,Houston,TX,77092
73,1420 West Loop 336 N,Suite 106,Conroe,TX,77304
75,3143 S.E. Military Drive,Suite 102,San Antonio,TX,78223
76,15235 S. W Freeway,,Sugarland,TX,77478
77,5010 Garth Road,,Baytown,TX,77521
78,2665 South Hwy 6,Suite A,Houston,TX,77082
79,3045 S John Redditt Drive,,Lufkin,TX,75901
81,11250 North Central Expressway,,Dallas,TX,75243
83,2422 S. Stemmons Freeway,,Lewisville,TX,75067
84,2021 Town East Blvd,Suite 1050,Mesquite,TX,75149
86,800 West 15th Street,Suite B,Plano,TX,75075
87,229 E FM Rd 1382,,Cedar Hill,TX,75104
88,747 N. Loop 820,,Hurst,TX,76053
89,3450 Brainbridge Drive,Suite 520,Dallas,TX,75237
92,4617 S. Hulen Street,,Fort Worth,TX,76132
94,137 Merchants Row #125,,Arlington,TX,76015
96,12 NE Loop 410,,San Antonio,TX,78216
97,4351 DFW Turnpike #300,Suite 520,Dallas,TX,75211
102,2800 E. Broadway,,Pearland,TX,77581
105,3931 Fairway Plaza Drive,,Pasadena,TX,77505
106,8317 N 10th Street,,McAllen,TX,78504
110,12850 S Freeway,,Burleston,TX,76028
111,"3315 NW Expressway, #B&C",#B & C,Oklahoma City,OK,73112
112,19746 Interstate 45,,Spring,TX,77373
116,7301 South Pennsylvania,,Oklahoma City,OK,73112
117,230 N New Road,,Waco,TX,76710
118,6101 Gateway West,Suite 2500,El Paso,TX,79925
119,101 Hotel Circle,,Albuquerque,NM,87123
120,700 S. Telshor Blvd,#6702,Las Cruces,NM,88011
121,6592 Lake Worth Blvd,,Lake Worth,TX,76135
122,2420 Bob Bullock Loop,,Laredo,TX,78043
123,5530 East Broadway Blvd,,Tucson,AZ,85711
128,1655 S. Stapley Drive,,Mesa,AZ,85204
129,9567 S. Main Street,,Houston,TX,77025
130,5000 Arizona Mills Circle,,Tempe,AZ,85282
131,7333 W. Thomas Road,Suite 16,Pheonix,AZ,85033
134,9190 E Indian Bend,,Scottsdale,AZ,85258
135,1190 S Castle Dome Ave,,Yuma,AZ,85365
138,1000 Coors Blvd Bypass NW,,Albuquerque,NM,87114
139,2510 S Souncy Rd,,Amarillo,TX,79124
141,15305 W. McDowell Rd,Suite E101,Goodyear,AZ,85338
143,2820 W Chandler Blvd,,Chandler,AZ,85224
148,3742 W. River Road,Suite 150,Tucson,AZ,85741
151,1655 Gallatin Pike,Suite 35,Madison,TN,37115
154,2820 W. Dunlap,,Pheonix,AZ,85051
157,151 North Peters,,Knoxville,TN,37923
158,605 Haywood Road,,Greenville,SC,29607
161,3525 Riverdale,,Memphis,TN,38115
164,2524 David McLeod Blvd,,Florence,SC,29501
175,1748 Skibo Rd,,Fayetteville,NC,28303
176,1971 N. Zaragoza Rd,,El Paso,TX,79936
177,9567 South Blvd,,Charlotte,NC,28273
184,5330 Cane Ridge Rd,,Antioch,TN,37013
185,197 New Hope Rd,,Gastonia,NC,28054
186,8709 JW Clay Blvd,,Charlotte,NC,28262
189,3260 Austin Peahy Hwy,,Memphis,TN,38128
190,3925 Oxford Station Way,,Winston-Salem,NC,27103
192,270 Bobby Jones Expressway,,Augusta,GA,30907
194,6921 E Admiral Place,,Tulsa,OK,74115
195,100 Peachwood Center Drive,,Spartanburg,SC,29301
197,5704 E. Independence Blvd,,Charlotte,NC,28212
199,4531 E. Thomas Rd,,Pheonix,AZ,85018
201,570 Main St. ,,Southhaven,MS,38671
202,3508 Gate City Blvd,,Greensboro,NC,27407
203,3650 Millhaven Road,,Monroe,LA,71203
205,4960 Center Pointe Dr,,North Charleston,SC,29418
206,4208 Central Avenue SW,,Albuquerque,NM,87105
211,3437 Masonic Dr,,Alexandria,LA,71301
216,1810 US HWY 70 SE,,Hickory,NC,28602
221,6125 University Dr. NW,,Huntsville,AL,35806
224,2900 E Millbrook Rd,,Raleigh,NC,27604
